{
  "type": "FeatureCollection",
  "features": [
    {
      "type": "Feature",
      "properties": {
        "norad_id": 31955,
        "name": "FENGYUN 1C DEB",
        "group": "fengyun-1c-debris",
        "lat": -35.08569485060724,
        "lon": 25.37460510274454,
        "alt_km": 657.2587691472982,
        "timestamp": "2025-12-02T10:50:47.559447+00:00",
        "meta_object_name": "FENGYUN 1C DEB",
        "meta_object_id": "1999-025CNG",
        "meta_epoch": "2025-12-01T10:04:40.844352",
        "meta_mean_motion": 14.63569936,
        "meta_eccentricity": 0.00433189,
        "meta_inclination": 99.2819,
        "meta_ra_of_asc_node": 210.8104,
        "meta_arg_of_pericenter": 216.6012,
        "meta_mean_anomaly": 324.4178,
        "meta_ephemeris_type": 0,
        "meta_classification_type": "U",
        "meta_norad_cat_id": 31955,
        "meta_element_set_no": 999,
        "meta_rev_at_epoch": 96391,
        "meta_bstar": 0.0022136753,
        "meta_mean_motion_dot": 0.00011605,
        "meta_mean_motion_ddot": 0,
        "tle_line1": "1 31955U 99025CNG 25335.41991718  .00011605  00000+0  22137-2 0  9995",
        "tle_line2": "2 31955  99.2819 210.8104 0043318 216.6012 324.4178 14.63569936963915"
      },
      "geometry": {
        "type": "Point",
        "coordinates": [
          25.37460510274454,
          -35.08569485060724
        ]
      }
    },
    {
      "type": "Feature",
      "properties": {
        "norad_id": 31959,
        "name": "FENGYUN 1C DEB",
        "group": "fengyun-1c-debris",
        "lat": 1.3804598553310787,
        "lon": 27.617725002370715,
        "alt_km": 721.4527061149056,
        "timestamp": "2025-12-02T10:50:47.559457+00:00",
        "meta_object_name": "FENGYUN 1C DEB",
        "meta_object_id": "1999-025CNL",
        "meta_epoch": "2025-12-01T09:07:12.688608",
        "meta_mean_motion": 14.46424835,
        "meta_eccentricity": 0.00266212,
        "meta_inclination": 98.5105,
        "meta_ra_of_asc_node": 206.3348,
        "meta_arg_of_pericenter": 192.8543,
        "meta_mean_anomaly": 167.1973,
        "meta_ephemeris_type": 0,
        "meta_classification_type": "U",
        "meta_norad_cat_id": 31959,
        "meta_element_set_no": 999,
        "meta_rev_at_epoch": 64189,
        "meta_bstar": 0.0032860242,
        "meta_mean_motion_dot": 0.00011835,
        "meta_mean_motion_ddot": 0,
        "tle_line1": "1 31959U 99025CNL 25335.38000797  .00011835  00000+0  32860-2 0  9992",
        "tle_line2": "2 31959  98.5105 206.3348 0026621 192.8543 167.1973 14.46424835641895"
      },
      "geometry": {
        "type": "Point",
        "coordinates": [
          27.617725002370715,
          1.3804598553310787
        ]
      }
    },
    {
      "type": "Feature",
      "properties": {
        "norad_id": 31964,
        "name": "FENGYUN 1C DEB",
        "group": "fengyun-1c-debris",
        "lat": -65.184148922689,
        "lon": -99.72735579356765,
        "alt_km": 726.8629042569873,
        "timestamp": "2025-12-02T10:50:47.559467+00:00",
        "meta_object_name": "FENGYUN 1C DEB",
        "meta_object_id": "1999-025CNR",
        "meta_epoch": "2025-12-01T07:22:06.821760",
        "meta_mean_motion": 14.5804981,
        "meta_eccentricity": 0.00287177,
        "meta_inclination": 98.7003,
        "meta_ra_of_asc_node": 98.4147,
        "meta_arg_of_pericenter": 67.7211,
        "meta_mean_anomaly": 292.7028,
        "meta_ephemeris_type": 0,
        "meta_classification_type": "U",
        "meta_norad_cat_id": 31964,
        "meta_element_set_no": 999,
        "meta_rev_at_epoch": 67343,
        "meta_bstar": 0.0035313238,
        "meta_mean_motion_dot": 0.00016318,
        "meta_mean_motion_ddot": 0,
        "tle_line1": "1 31964U 99025CNR 25335.30702340  .00016318  00000+0  35313-2 0  9990",
        "tle_line2": "2 31964  98.7003  98.4147 0028717  67.7211 292.7028 14.58049810673437"
      },
      "geometry": {
        "type": "Point",
        "coordinates": [
          -99.72735579356765,
          -65.184148922689
        ]
      }
    },
    {
      "type": "Feature",
      "properties": {
        "norad_id": 31966,
        "name": "FENGYUN 1C DEB",
        "group": "fengyun-1c-debris",
        "lat": -64.77199627001997,
        "lon": -71.68009269795004,
        "alt_km": 646.3526132158877,
        "timestamp": "2025-12-02T10:50:47.559477+00:00",
        "meta_object_name": "FENGYUN 1C DEB",
        "meta_object_id": "1999-025CNT",
        "meta_epoch": "2025-11-30T16:48:16.407360",
        "meta_mean_motion": 14.67276543,
        "meta_eccentricity": 0.00863938,
        "meta_inclination": 99.0163,
        "meta_ra_of_asc_node": 126.0883,
        "meta_arg_of_pericenter": 312.0125,
        "meta_mean_anomaly": 47.3743,
        "meta_ephemeris_type": 0,
        "meta_classification_type": "U",
        "meta_norad_cat_id": 31966,
        "meta_element_set_no": 999,
        "meta_rev_at_epoch": 65566,
        "meta_bstar": 0.0011078085,
        "meta_mean_motion_dot": 6.547e-05,
        "meta_mean_motion_ddot": 0,
        "tle_line1": "1 31966U 99025CNT 25334.70018990  .00006547  00000+0  11078-2 0  9991",
        "tle_line2": "2 31966  99.0163 126.0883 0086393 312.0125  47.3743 14.67276543655667"
      },
      "geometry": {
        "type": "Point",
        "coordinates": [
          -71.68009269795004,
          -64.77199627001997
        ]
      }
    },
    {
      "type": "Feature",
      "properties": {
        "norad_id": 31972,
        "name": "FENGYUN 1C DEB",
        "group": "fengyun-1c-debris",
        "lat": -16.840338450523493,
        "lon": 20.71813170834179,
        "alt_km": 859.7208893288534,
        "timestamp": "2025-12-02T10:50:47.559487+00:00",
        "meta_object_name": "FENGYUN 1C DEB",
        "meta_object_id": "1999-025CNZ",
        "meta_epoch": "2025-11-26T01:31:54.145632",
        "meta_mean_motion": 14.07496094,
        "meta_eccentricity": 0.00774117,
        "meta_inclination": 99.2143,
        "meta_ra_of_asc_node": 11.3894,
        "meta_arg_of_pericenter": 77.82,
        "meta_mean_anomaly": 315.2591,
        "meta_ephemeris_type": 0,
        "meta_classification_type": "U",
        "meta_norad_cat_id": 31972,
        "meta_element_set_no": 999,
        "meta_rev_at_epoch": 94726,
        "meta_bstar": 0.00030877321,
        "meta_mean_motion_dot": 4.89e-06,
        "meta_mean_motion_ddot": 0,
        "tle_line1": "1 31972U 99025CNZ 25330.06382113  .00000489  00000+0  30877-3 0  9992",
        "tle_line2": "2 31972  99.2143  11.3894 0077411  77.8200 315.2591 14.07496094947260"
      },
      "geometry": {
        "type": "Point",
        "coordinates": [
          20.71813170834179,
          -16.840338450523493
        ]
      }
    },
    {
      "type": "Feature",
      "properties": {
        "norad_id": 31974,
        "name": "FENGYUN 1C DEB",
        "group": "fengyun-1c-debris",
        "lat": 4.445957755728038,
        "lon": -12.68454497255908,
        "alt_km": 752.167652338474,
        "timestamp": "2025-12-02T10:50:47.559499+00:00",
        "meta_object_name": "FENGYUN 1C DEB",
        "meta_object_id": "1999-025CPB",
        "meta_epoch": "2025-12-01T11:18:16.070976",
        "meta_mean_motion": 14.29289963,
        "meta_eccentricity": 0.0071825,
        "meta_inclination": 98.3809,
        "meta_ra_of_asc_node": 347.0288,
        "meta_arg_of_pericenter": 336.4405,
        "meta_mean_anomaly": 23.3493,
        "meta_ephemeris_type": 0,
        "meta_classification_type": "U",
        "meta_norad_cat_id": 31974,
        "meta_element_set_no": 999,
        "meta_rev_at_epoch": 69261,
        "meta_bstar": 0.0029240736,
        "meta_mean_motion_dot": 7.614e-05,
        "meta_mean_motion_ddot": 0,
        "tle_line1": "1 31974U 99025CPB 25335.47101934  .00007614  00000+0  29241-2 0  9993",
        "tle_line2": "2 31974  98.3809 347.0288 0071825 336.4405  23.3493 14.29289963692614"
      },
      "geometry": {
        "type": "Point",
        "coordinates": [
          -12.68454497255908,
          4.445957755728038
        ]
      }
    },
    {
      "type": "Feature",
      "properties": {
        "norad_id": 31978,
        "name": "FENGYUN 1C DEB",
        "group": "fengyun-1c-debris",
        "lat": -27.129193594484057,
        "lon": 137.23102757845302,
        "alt_km": 1074.4837454929257,
        "timestamp": "2025-12-02T10:50:47.559509+00:00",
        "meta_object_name": "FENGYUN 1C DEB",
        "meta_object_id": "1999-025CPF",
        "meta_epoch": "2025-11-24T09:11:44.769120",
        "meta_mean_motion": 13.63055999,
        "meta_eccentricity": 0.02632898,
        "meta_inclination": 98.3792,
        "meta_ra_of_asc_node": 125.945,
        "meta_arg_of_pericenter": 98.6092,
        "meta_mean_anomaly": 264.4976,
        "meta_ephemeris_type": 0,
        "meta_classification_type": "U",
        "meta_norad_cat_id": 31978,
        "meta_element_set_no": 999,
        "meta_rev_at_epoch": 91340,
        "meta_bstar": 0.0013570438,
        "meta_mean_motion_dot": 1.31e-05,
        "meta_mean_motion_ddot": 0,
        "tle_line1": "1 31978U 99025CPF 25328.38315705  .00001310  00000+0  13570-2 0  9997",
        "tle_line2": "2 31978  98.3792 125.9450 0263289  98.6092 264.4976 13.63055999913403"
      },
      "geometry": {
        "type": "Point",
        "coordinates": [
          137.23102757845302,
          -27.129193594484057
        ]
      }
    }
  ]
}